ONEWEB-0647             
1 56079U 23043AK  23347.78643423  .00000080  00000+0  17821-3 0  9994
2 56079  87.9014  81.6636 0001328 106.9008 253.2268 13.15546377 35936
ONEWEB-0651             
1 56080U 23043AL  23347.32534340  .00000208  00000+0  51830-3 0  9993
2 56080  87.9008  81.7263 0001390  92.3157 267.8133 13.15549030 37078
ONEWEB-0718             
1 56081U 23043AM  23347.32057876  .00000177  00000+0  43626-3 0  9997
2 56081  87.9002  81.7150 0002370 106.9403 253.1987 13.15550185 35888
GSLV R/B                
1 56082U 23043AN  23347.60479810  .00034434  00000+0  52808-3 0  9990
2 56082  87.4114  49.0377 0020606  83.8376 276.5233 15.53907291 40506
ONEWEB-0561             
1 56710U 23068A   23347.36829929  .00000076  00000+0  12699-3 0  9997
2 56710  88.2927  93.0353 0001210 128.8651 231.2599 13.34318237 28348
ONEWEB-0668             
1 56711U 23068B   23347.91667824 -.00780642  00000+0 -23555+0 0  9998
2 56711  86.9403  56.0932 0012852 216.0488 205.1586 14.45548627 31449
ONEWEB-0676             
1 56712U 23068C   23347.91667824 -.00829735  00000+0 -30198+0 0  9997
2 56712  86.9195  56.0632 0013374 210.5697 153.0586 14.36434547 31431
ONEWEB-0677             
1 56713U 23068D   23347.34132326  .00000069  00000+0  11152-3 0  9991
2 56713  88.3261  91.1281 0001489  84.3501 275.7810 13.34767014 28520
